<?xml version="1.0" encoding="UTF-8"?>
<gpx creator="StravaGPX" version="1.1" xmlns="http://www.topografix.com/GPX/1/1" xmlns:xsi="http://www.w3.org/2001/XMLSchema-instance" xsi:schemaLocation="http://www.topografix.com/GPX/1/1 http://www.topografix.com/GPX/1/1/gpx.xsd">
 <metadata>
  <time>2026-08-03T15:07:18Z</time>
 </metadata>
 <trk>
  <name>Afternoon Run</name>
  <type>running</type>
  <trkseg>
   <trkpt lat="56.1976050" lon="9.5926210">
    <ele>74.5</ele>
    <time>2026-08-03T15:07:18Z</time>
   </trkpt>
   <trkpt lat="56.1976040" lon="9.5926150">
    <ele>74.5</ele>
    <time>2026-08-03T15:07:19Z</time>
   </trkpt>
   <trkpt lat="56.1976140" lon="9.5925720">
    <ele>74.5</ele>
    <time>2026-08-03T15:07:21Z</time>
   </trkpt>
   <trkpt lat="56.1976260" lon="9.5925280">
    <ele>74.5</ele>
    <time>2026-08-03T15:07:22Z</time>
   </trkpt>
   <trkpt lat="56.1976380" lon="9.5925110">
    <ele>74.5</ele>
    <time>2026-08-03T15:07:23Z</time>
   </trkpt>
   <trkpt lat="56.1976560" lon="9.5925180">
    <ele>74.5</ele>
    <time>2026-08-03T15:07:24Z</time>
   </trkpt>
   <trkpt lat="56.1976540" lon="9.5925440">
    <ele>74.5</ele>
    <time>2026-08-03T15:07:26Z</time>
   </trkpt>
   <trkpt lat="56.1976480" lon="9.5925550">
    <ele>74.5</ele>
    <time>2026-08-03T15:07:27Z</time>
   </trkpt>
   <trkpt lat="56.1976530" lon="9.5925580">
    <ele>74.5</ele>
    <time>2026-08-03T15:07:28Z</time>
   </trkpt>
   <trkpt lat="56.1976350" lon="9.5925840">
    <ele>74.5</ele>
    <time>2026-08-03T15:07:29Z</time>
   </trkpt>
   <trkpt lat="56.1976080" lon="9.5926190">
    <ele>74.5</ele>
    <time>2026-08-03T15:07:30Z</time>
   </trkpt>
   <trkpt lat="56.1975900" lon="9.5926520">
    <ele>74.5</ele>
    <time>2026-08-03T15:07:31Z</time>
   </trkpt>
   <trkpt lat="56.1975800" lon="9.5926850">
    <ele>74.5</ele>
    <time>2026-08-03T15:07:32Z</time>
   </trkpt>
   <trkpt lat="56.1976100" lon="9.5927290">
    <ele>74.5</ele>
    <time>2026-08-03T15:07:33Z</time>
   </trkpt>
   <trkpt lat="56.1977050" lon="9.5928260">
    <ele>74.5</ele>
    <time>2026-08-03T15:07:35Z</time>
   </trkpt>
   <trkpt lat="56.1977330" lon="9.5928370">
    <ele>74.5</ele>
    <time>2026-08-03T15:07:37Z</time>
   </trkpt>
   <trkpt lat="56.1977530" lon="9.5928280">
    <ele>74.5</ele>
    <time>2026-08-03T15:07:38Z</time>
   </trkpt>
   <trkpt lat="56.1977660" lon="9.5928200">
    <ele>74.6</ele>
    <time>2026-08-03T15:07:39Z</time>
   </trkpt>
   <trkpt lat="56.1977870" lon="9.5928150">
    <ele>74.6</ele>
    <time>2026-08-03T15:07:40Z</time>
   </trkpt>
   <trkpt lat="56.1978020" lon="9.5928150">
    <ele>74.6</ele>
    <time>2026-08-03T15:07:41Z</time>
   </trkpt>
   <trkpt lat="56.1978180" lon="9.5928210">
    <ele>74.6</ele>
    <time>2026-08-03T15:07:42Z</time>
   </trkpt>
   <trkpt lat="56.1978590" lon="9.5928290">
    <ele>74.6</ele>
    <time>2026-08-03T15:07:44Z</time>
   </trkpt>
   <trkpt lat="56.1979000" lon="9.5928500">
    <ele>74.7</ele>
    <time>2026-08-03T15:07:46Z</time>
   </trkpt>
   <trkpt lat="56.1979210" lon="9.5928630">
    <ele>74.8</ele>
    <time>2026-08-03T15:07:47Z</time>
   </trkpt>
   <trkpt lat="56.1979600" lon="9.5928850">
    <ele>74.9</ele>
    <time>2026-08-03T15:07:49Z</time>
   </trkpt>
   <trkpt lat="56.1979740" lon="9.5929000">
    <ele>74.9</ele>
    <time>2026-08-03T15:07:50Z</time>
   </trkpt>
   <trkpt lat="56.1979900" lon="9.5929080">
    <ele>75.0</ele>
    <time>2026-08-03T15:07:51Z</time>
   </trkpt>
   <trkpt lat="56.1980040" lon="9.5929130">
    <ele>75.0</ele>
    <time>2026-08-03T15:07:52Z</time>
   </trkpt>
   <trkpt lat="56.1980200" lon="9.5929120">
    <ele>75.1</ele>
    <time>2026-08-03T15:07:53Z</time>
   </trkpt>
   <trkpt lat="56.1980460" lon="9.5928520">
    <ele>75.1</ele>
    <time>2026-08-03T15:07:55Z</time>
   </trkpt>
   <trkpt lat="56.1980540" lon="9.5928160">
    <ele>75.0</ele>
    <time>2026-08-03T15:07:56Z</time>
   </trkpt>
   <trkpt lat="56.1980580" lon="9.5927720">
    <ele>75.0</ele>
    <time>2026-08-03T15:07:57Z</time>
   </trkpt>
   <trkpt lat="56.1980610" lon="9.5927290">
    <ele>75.0</ele>
    <time>2026-08-03T15:07:58Z</time>
   </trkpt>
   <trkpt lat="56.1980650" lon="9.5926880">
    <ele>75.0</ele>
    <time>2026-08-03T15:07:59Z</time>
   </trkpt>
   <trkpt lat="56.1980680" lon="9.5926500">
    <ele>75.0</ele>
    <time>2026-08-03T15:08:00Z</time>
   </trkpt>
   <trkpt lat="56.1980730" lon="9.5926120">
    <ele>75.0</ele>
    <time>2026-08-03T15:08:02Z</time>
   </trkpt>
   <trkpt lat="56.1980850" lon="9.5925380">
    <ele>75.0</ele>
    <time>2026-08-03T15:08:03Z</time>
   </trkpt>
   <trkpt lat="56.1980920" lon="9.5925010">
    <ele>75.0</ele>
    <time>2026-08-03T15:08:04Z</time>
   </trkpt>
   <trkpt lat="56.1981100" lon="9.5924300">
    <ele>75.0</ele>
    <time>2026-08-03T15:08:06Z</time>
   </trkpt>
   <trkpt lat="56.1981210" lon="9.5923980">
    <ele>75.0</ele>
    <time>2026-08-03T15:08:07Z</time>
   </trkpt>
   <trkpt lat="56.1981370" lon="9.5923670">
    <ele>75.0</ele>
    <time>2026-08-03T15:08:08Z</time>
   </trkpt>
   <trkpt lat="56.1981470" lon="9.5923380">
    <ele>75.0</ele>
    <time>2026-08-03T15:08:09Z</time>
   </trkpt>
   <trkpt lat="56.1981620" lon="9.5923130">
    <ele>75.0</ele>
    <time>2026-08-03T15:08:11Z</time>
   </trkpt>
   <trkpt lat="56.1981760" lon="9.5922840">
    <ele>75.1</ele>
    <time>2026-08-03T15:08:12Z</time>
   </trkpt>
   <trkpt lat="56.1981880" lon="9.5922550">
    <ele>75.1</ele>
    <time>2026-08-03T15:08:13Z</time>
   </trkpt>
   <trkpt lat="56.1982130" lon="9.5921940">
    <ele>75.1</ele>
    <time>2026-08-03T15:08:14Z</time>
   </trkpt>
   <trkpt lat="56.1982250" lon="9.5921620">
    <ele>75.1</ele>
    <time>2026-08-03T15:08:16Z</time>
   </trkpt>
   <trkpt lat="56.1982480" lon="9.5920990">
    <ele>75.2</ele>
    <time>2026-08-03T15:08:17Z</time>
   </trkpt>
   <trkpt lat="56.1982550" lon="9.5920640">
    <ele>75.2</ele>
    <time>2026-08-03T15:08:18Z</time>
   </trkpt>
   <trkpt lat="56.1982610" lon="9.5920290">
    <ele>75.2</ele>
    <time>2026-08-03T15:08:19Z</time>
   </trkpt>
   <trkpt lat="56.1982700" lon="9.5919510">
    <ele>75.3</ele>
    <time>2026-08-03T15:08:21Z</time>
   </trkpt>
   <trkpt lat="56.1982730" lon="9.5919120">
    <ele>75.3</ele>
    <time>2026-08-03T15:08:22Z</time>
   </trkpt>
   <trkpt lat="56.1982710" lon="9.5918780">
    <ele>75.3</ele>
    <time>2026-08-03T15:08:23Z</time>
   </trkpt>
   <trkpt lat="56.1982670" lon="9.5918430">
    <ele>75.3</ele>
    <time>2026-08-03T15:08:24Z</time>
   </trkpt>
   <trkpt lat="56.1982630" lon="9.5918070">
    <ele>75.3</ele>
    <time>2026-08-03T15:08:25Z</time>
   </trkpt>
   <trkpt lat="56.1982590" lon="9.5917720">
    <ele>75.3</ele>
    <time>2026-08-03T15:08:26Z</time>
   </trkpt>
   <trkpt lat="56.1982580" lon="9.5917340">
    <ele>75.3</ele>
    <time>2026-08-03T15:08:27Z</time>
   </trkpt>
   <trkpt lat="56.1982550" lon="9.5916620">
    <ele>75.2</ele>
    <time>2026-08-03T15:08:29Z</time>
   </trkpt>
   <trkpt lat="56.1982580" lon="9.5916220">
    <ele>75.2</ele>
    <time>2026-08-03T15:08:30Z</time>
   </trkpt>
   <trkpt lat="56.1982580" lon="9.5915840">
    <ele>75.2</ele>
    <time>2026-08-03T15:08:31Z</time>
   </trkpt>
   <trkpt lat="56.1982530" lon="9.5915470">
    <ele>75.2</ele>
    <time>2026-08-03T15:08:32Z</time>
   </trkpt>
   <trkpt lat="56.1982470" lon="9.5915120">
    <ele>75.2</ele>
    <time>2026-08-03T15:08:33Z</time>
   </trkpt>
   <trkpt lat="56.1982380" lon="9.5914790">
    <ele>75.2</ele>
    <time>2026-08-03T15:08:34Z</time>
   </trkpt>
   <trkpt lat="56.1982270" lon="9.5914510">
    <ele>75.2</ele>
    <time>2026-08-03T15:08:35Z</time>
   </trkpt>
   <trkpt lat="56.1982120" lon="9.5914250">
    <ele>75.2</ele>
    <time>2026-08-03T15:08:36Z</time>
   </trkpt>
   <trkpt lat="56.1981960" lon="9.5914030">
    <ele>75.2</ele>
    <time>2026-08-03T15:08:37Z</time>
   </trkpt>
   <trkpt lat="56.1981760" lon="9.5913630">
    <ele>75.2</ele>
    <time>2026-08-03T15:08:39Z</time>
   </trkpt>
   <trkpt lat="56.1981620" lon="9.5913300">
    <ele>75.2</ele>
    <time>2026-08-03T15:08:41Z</time>
   </trkpt>
   <trkpt lat="56.1981500" lon="9.5913140">
    <ele>75.2</ele>
    <time>2026-08-03T15:08:42Z</time>
   </trkpt>
   <trkpt lat="56.1981370" lon="9.5912990">
    <ele>75.2</ele>
    <time>2026-08-03T15:08:43Z</time>
   </trkpt>
   <trkpt lat="56.1981250" lon="9.5912800">
    <ele>75.2</ele>
    <time>2026-08-03T15:08:44Z</time>
   </trkpt>
   <trkpt lat="56.1981140" lon="9.5912560">
    <ele>75.2</ele>
    <time>2026-08-03T15:08:45Z</time>
   </trkpt>
   <trkpt lat="56.1981030" lon="9.5912340">
    <ele>75.2</ele>
    <time>2026-08-03T15:08:46Z</time>
   </trkpt>
   <trkpt lat="56.1980930" lon="9.5912010">
    <ele>75.2</ele>
    <time>2026-08-03T15:08:47Z</time>
   </trkpt>
   <trkpt lat="56.1980800" lon="9.5911700">
    <ele>75.2</ele>
    <time>2026-08-03T15:08:48Z</time>
   </trkpt>
   <trkpt lat="56.1980750" lon="9.5911370">
    <ele>75.2</ele>
    <time>2026-08-03T15:08:49Z</time>
   </trkpt>
   <trkpt lat="56.1980590" lon="9.5910730">
    <ele>75.2</ele>
    <time>2026-08-03T15:08:51Z</time>
   </trkpt>
   <trkpt lat="56.1980390" lon="9.5910190">
    <ele>75.2</ele>
    <time>2026-08-03T15:08:53Z</time>
   </trkpt>
   <trkpt lat="56.1980300" lon="9.5909920">
    <ele>75.2</ele>
    <time>2026-08-03T15:08:54Z</time>
   </trkpt>
   <trkpt lat="56.1980220" lon="9.5909630">
    <ele>75.2</ele>
    <time>2026-08-03T15:08:55Z</time>
   </trkpt>
   <trkpt lat="56.1980170" lon="9.5909380">
    <ele>75.3</ele>
    <time>2026-08-03T15:08:56Z</time>
   </trkpt>
   <trkpt lat="56.1980080" lon="9.5909010">
    <ele>75.3</ele>
    <time>2026-08-03T15:08:57Z</time>
   </trkpt>
   <trkpt lat="56.1979930" lon="9.5908610">
    <ele>75.3</ele>
    <time>2026-08-03T15:08:58Z</time>
   </trkpt>
   <trkpt lat="56.1979790" lon="9.5908300">
    <ele>75.3</ele>
    <time>2026-08-03T15:08:59Z</time>
   </trkpt>
   <trkpt lat="56.1979570" lon="9.5908010">
    <ele>75.3</ele>
    <time>2026-08-03T15:09:00Z</time>
   </trkpt>
   <trkpt lat="56.1979390" lon="9.5907760">
    <ele>75.3</ele>
    <time>2026-08-03T15:09:01Z</time>
   </trkpt>
   <trkpt lat="56.1979090" lon="9.5907520">
    <ele>75.3</ele>
    <time>2026-08-03T15:09:02Z</time>
   </trkpt>
   <trkpt lat="56.1978900" lon="9.5907340">
    <ele>75.3</ele>
    <time>2026-08-03T15:09:03Z</time>
   </trkpt>
   <trkpt lat="56.1978660" lon="9.5907280">
    <ele>75.3</ele>
    <time>2026-08-03T15:09:04Z</time>
   </trkpt>
   <trkpt lat="56.1978500" lon="9.5907130">
    <ele>75.3</ele>
    <time>2026-08-03T15:09:05Z</time>
   </trkpt>
   <trkpt lat="56.1978400" lon="9.5906600">
    <ele>75.3</ele>
    <time>2026-08-03T15:09:07Z</time>
   </trkpt>
   <trkpt lat="56.1978480" lon="9.5906210">
    <ele>75.3</ele>
    <time>2026-08-03T15:09:08Z</time>
   </trkpt>
   <trkpt lat="56.1978430" lon="9.5905930">
    <ele>75.3</ele>
    <time>2026-08-03T15:09:09Z</time>
   </trkpt>
   <trkpt lat="56.1978380" lon="9.5905660">
    <ele>75.3</ele>
    <time>2026-08-03T15:09:10Z</time>
   </trkpt>
   <trkpt lat="56.1978340" lon="9.5905350">
    <ele>75.3</ele>
    <time>2026-08-03T15:09:11Z</time>
   </trkpt>
   <trkpt lat="56.1978310" lon="9.5905040">
    <ele>75.3</ele>
    <time>2026-08-03T15:09:12Z</time>
   </trkpt>
   <trkpt lat="56.1978280" lon="9.5904720">
    <ele>75.3</ele>
    <time>2026-08-03T15:09:13Z</time>
   </trkpt>
   <trkpt lat="56.1978230" lon="9.5904430">
    <ele>75.4</ele>
    <time>2026-08-03T15:09:14Z</time>
   </trkpt>
   <trkpt lat="56.1978150" lon="9.5904150">
    <ele>75.4</ele>
    <time>2026-08-03T15:09:15Z</time>
   </trkpt>
   <trkpt lat="56.1977970" lon="9.5903640">
    <ele>75.4</ele>
    <time>2026-08-03T15:09:17Z</time>
   </trkpt>
   <trkpt lat="56.1977910" lon="9.5903430">
    <ele>75.4</ele>
    <time>2026-08-03T15:09:18Z</time>
   </trkpt>
   <trkpt lat="56.1977790" lon="9.5903240">
    <ele>75.4</ele>
    <time>2026-08-03T15:09:19Z</time>
   </trkpt>
   <trkpt lat="56.1977690" lon="9.5903050">
    <ele>75.4</ele>
    <time>2026-08-03T15:09:20Z</time>
   </trkpt>
   <trkpt lat="56.1977530" lon="9.5903030">
    <ele>75.4</ele>
    <time>2026-08-03T15:09:21Z</time>
   </trkpt>
   <trkpt lat="56.1977370" lon="9.5902860">
    <ele>75.4</ele>
    <time>2026-08-03T15:09:23Z</time>
   </trkpt>
   <trkpt lat="56.1977280" lon="9.5902680">
    <ele>75.4</ele>
    <time>2026-08-03T15:09:24Z</time>
   </trkpt>
   <trkpt lat="56.1977220" lon="9.5902510">
    <ele>75.5</ele>
    <time>2026-08-03T15:09:25Z</time>
   </trkpt>
   <trkpt lat="56.1977140" lon="9.5902230">
    <ele>75.5</ele>
    <time>2026-08-03T15:09:26Z</time>
   </trkpt>
   <trkpt lat="56.1977020" lon="9.5901950">
    <ele>75.5</ele>
    <time>2026-08-03T15:09:27Z</time>
   </trkpt>
   <trkpt lat="56.1976900" lon="9.5901570">
    <ele>75.5</ele>
    <time>2026-08-03T15:09:28Z</time>
   </trkpt>
   <trkpt lat="56.1976840" lon="9.5901360">
    <ele>75.5</ele>
    <time>2026-08-03T15:09:29Z</time>
   </trkpt>
   <trkpt lat="56.1976750" lon="9.5901110">
    <ele>75.5</ele>
    <time>2026-08-03T15:09:30Z</time>
   </trkpt>
   <trkpt lat="56.1976630" lon="9.5900860">
    <ele>75.5</ele>
    <time>2026-08-03T15:09:31Z</time>
   </trkpt>
   <trkpt lat="56.1976520" lon="9.5900640">
    <ele>75.5</ele>
    <time>2026-08-03T15:09:32Z</time>
   </trkpt>
   <trkpt lat="56.1976410" lon="9.5900400">
    <ele>75.5</ele>
    <time>2026-08-03T15:09:33Z</time>
   </trkpt>
   <trkpt lat="56.1976320" lon="9.5900180">
    <ele>75.5</ele>
    <time>2026-08-03T15:09:34Z</time>
   </trkpt>
   <trkpt lat="56.1976210" lon="9.5899960">
    <ele>75.6</ele>
    <time>2026-08-03T15:09:35Z</time>
   </trkpt>
   <trkpt lat="56.1976110" lon="9.5899710">
    <ele>75.6</ele>
    <time>2026-08-03T15:09:36Z</time>
   </trkpt>
   <trkpt lat="56.1976020" lon="9.5899440">
    <ele>75.6</ele>
    <time>2026-08-03T15:09:37Z</time>
   </trkpt>
   <trkpt lat="56.1975910" lon="9.5899160">
    <ele>75.6</ele>
    <time>2026-08-03T15:09:38Z</time>
   </trkpt>
   <trkpt lat="56.1975810" lon="9.5898960">
    <ele>75.6</ele>
    <time>2026-08-03T15:09:39Z</time>
   </trkpt>
   <trkpt lat="56.1975680" lon="9.5898710">
    <ele>75.6</ele>
    <time>2026-08-03T15:09:40Z</time>
   </trkpt>
   <trkpt lat="56.1975570" lon="9.5898550">
    <ele>75.6</ele>
    <time>2026-08-03T15:09:41Z</time>
   </trkpt>
   <trkpt lat="56.1975440" lon="9.5898330">
    <ele>75.6</ele>
    <time>2026-08-03T15:09:42Z</time>
   </trkpt>
   <trkpt lat="56.1975160" lon="9.5897960">
    <ele>75.6</ele>
    <time>2026-08-03T15:09:44Z</time>
   </trkpt>
   <trkpt lat="56.1975030" lon="9.5897720">
    <ele>75.6</ele>
    <time>2026-08-03T15:09:45Z</time>
   </trkpt>
   <trkpt lat="56.1974900" lon="9.5897460">
    <ele>75.6</ele>
    <time>2026-08-03T15:09:46Z</time>
   </trkpt>
   <trkpt lat="56.1974770" lon="9.5897200">
    <ele>75.6</ele>
    <time>2026-08-03T15:09:47Z</time>
   </trkpt>
   <trkpt lat="56.1974650" lon="9.5896950">
    <ele>75.7</ele>
    <time>2026-08-03T15:09:48Z</time>
   </trkpt>
   <trkpt lat="56.1974500" lon="9.5896730">
    <ele>75.7</ele>
    <time>2026-08-03T15:09:49Z</time>
   </trkpt>
   <trkpt lat="56.1974350" lon="9.5896500">
    <ele>75.7</ele>
    <time>2026-08-03T15:09:50Z</time>
   </trkpt>
   <trkpt lat="56.1974180" lon="9.5896280">
    <ele>75.7</ele>
    <time>2026-08-03T15:09:51Z</time>
   </trkpt>
   <trkpt lat="56.1974020" lon="9.5896070">
    <ele>75.7</ele>
    <time>2026-08-03T15:09:52Z</time>
   </trkpt>
   <trkpt lat="56.1973860" lon="9.5895860">
    <ele>75.7</ele>
    <time>2026-08-03T15:09:53Z</time>
   </trkpt>
   <trkpt lat="56.1973690" lon="9.5895400">
    <ele>75.8</ele>
    <time>2026-08-03T15:09:55Z</time>
   </trkpt>
   <trkpt lat="56.1973420" lon="9.5894920">
    <ele>75.8</ele>
    <time>2026-08-03T15:09:57Z</time>
   </trkpt>
   <trkpt lat="56.1973280" lon="9.5894610">
    <ele>75.8</ele>
    <time>2026-08-03T15:09:58Z</time>
   </trkpt>
   <trkpt lat="56.1973150" lon="9.5894330">
    <ele>75.8</ele>
    <time>2026-08-03T15:10:00Z</time>
   </trkpt>
   <trkpt lat="56.1973010" lon="9.5894040">
    <ele>75.8</ele>
    <time>2026-08-03T15:10:01Z</time>
   </trkpt>
   <trkpt lat="56.1972760" lon="9.5893540">
    <ele>75.9</ele>
    <time>2026-08-03T15:10:02Z</time>
   </trkpt>
   <trkpt lat="56.1972610" lon="9.5893390">
    <ele>75.9</ele>
    <time>2026-08-03T15:10:03Z</time>
   </trkpt>
   <trkpt lat="56.1972420" lon="9.5893400">
    <ele>75.8</ele>
    <time>2026-08-03T15:10:04Z</time>
   </trkpt>
   <trkpt lat="56.1972290" lon="9.5893590">
    <ele>75.7</ele>
    <time>2026-08-03T15:10:06Z</time>
   </trkpt>
   <trkpt lat="56.1972200" lon="9.5893810">
    <ele>75.7</ele>
    <time>2026-08-03T15:10:07Z</time>
   </trkpt>
   <trkpt lat="56.1972110" lon="9.5894090">
    <ele>75.7</ele>
    <time>2026-08-03T15:10:08Z</time>
   </trkpt>
   <trkpt lat="56.1972000" lon="9.5894830">
    <ele>75.6</ele>
    <time>2026-08-03T15:10:09Z</time>
   </trkpt>
   <trkpt lat="56.1971950" lon="9.5895470">
    <ele>75.5</ele>
    <time>2026-08-03T15:10:11Z</time>
   </trkpt>
   <trkpt lat="56.1971880" lon="9.5896140">
    <ele>75.5</ele>
    <time>2026-08-03T15:10:13Z</time>
   </trkpt>
   <trkpt lat="56.1971830" lon="9.5896840">
    <ele>75.4</ele>
    <time>2026-08-03T15:10:15Z</time>
   </trkpt>
   <trkpt lat="56.1971810" lon="9.5897230">
    <ele>75.4</ele>
    <time>2026-08-03T15:10:16Z</time>
   </trkpt>
   <trkpt lat="56.1971740" lon="9.5898010">
    <ele>75.4</ele>
    <time>2026-08-03T15:10:18Z</time>
   </trkpt>
   <trkpt lat="56.1971670" lon="9.5898780">
    <ele>75.3</ele>
    <time>2026-08-03T15:10:20Z</time>
   </trkpt>
   <trkpt lat="56.1971580" lon="9.5899530">
    <ele>75.3</ele>
    <time>2026-08-03T15:10:22Z</time>
   </trkpt>
   <trkpt lat="56.1971500" lon="9.5899930">
    <ele>75.3</ele>
    <time>2026-08-03T15:10:23Z</time>
   </trkpt>
   <trkpt lat="56.1971430" lon="9.5900280">
    <ele>75.3</ele>
    <time>2026-08-03T15:10:25Z</time>
   </trkpt>
   <trkpt lat="56.1971370" lon="9.5900660">
    <ele>75.3</ele>
    <time>2026-08-03T15:10:26Z</time>
   </trkpt>
   <trkpt lat="56.1971240" lon="9.5901300">
    <ele>75.3</ele>
    <time>2026-08-03T15:10:27Z</time>
   </trkpt>
   <trkpt lat="56.1971090" lon="9.5901870">
    <ele>75.3</ele>
    <time>2026-08-03T15:10:29Z</time>
   </trkpt>
   <trkpt lat="56.1971070" lon="9.5901920">
    <ele>75.3</ele>
    <time>2026-08-03T15:10:31Z</time>
   </trkpt>
   <trkpt lat="56.1971030" lon="9.5902180">
    <ele>75.3</ele>
    <time>2026-08-03T15:10:32Z</time>
   </trkpt>
   <trkpt lat="56.1970960" lon="9.5902770">
    <ele>75.3</ele>
    <time>2026-08-03T15:10:33Z</time>
   </trkpt>
   <trkpt lat="56.1970960" lon="9.5903020">
    <ele>75.2</ele>
    <time>2026-08-03T15:10:34Z</time>
   </trkpt>
   <trkpt lat="56.1970920" lon="9.5903310">
    <ele>75.2</ele>
    <time>2026-08-03T15:10:35Z</time>
   </trkpt>
   <trkpt lat="56.1970810" lon="9.5903660">
    <ele>75.2</ele>
    <time>2026-08-03T15:10:37Z</time>
   </trkpt>
   <trkpt lat="56.1970760" lon="9.5903980">
    <ele>75.2</ele>
    <time>2026-08-03T15:10:38Z</time>
   </trkpt>
   <trkpt lat="56.1970710" lon="9.5904300">
    <ele>75.2</ele>
    <time>2026-08-03T15:10:39Z</time>
   </trkpt>
   <trkpt lat="56.1970670" lon="9.5904590">
    <ele>75.2</ele>
    <time>2026-08-03T15:10:40Z</time>
   </trkpt>
   <trkpt lat="56.1970620" lon="9.5904910">
    <ele>75.2</ele>
    <time>2026-08-03T15:10:41Z</time>
   </trkpt>
   <trkpt lat="56.1970480" lon="9.5905620">
    <ele>75.2</ele>
    <time>2026-08-03T15:10:42Z</time>
   </trkpt>
   <trkpt lat="56.1970350" lon="9.5906180">
    <ele>75.2</ele>
    <time>2026-08-03T15:10:44Z</time>
   </trkpt>
   <trkpt lat="56.1970310" lon="9.5906430">
    <ele>75.2</ele>
    <time>2026-08-03T15:10:45Z</time>
   </trkpt>
   <trkpt lat="56.1970240" lon="9.5906750">
    <ele>75.1</ele>
    <time>2026-08-03T15:10:46Z</time>
   </trkpt>
   <trkpt lat="56.1970170" lon="9.5907080">
    <ele>75.1</ele>
    <time>2026-08-03T15:10:47Z</time>
   </trkpt>
   <trkpt lat="56.1970130" lon="9.5907410">
    <ele>75.1</ele>
    <time>2026-08-03T15:10:49Z</time>
   </trkpt>
   <trkpt lat="56.1969970" lon="9.5907950">
    <ele>75.1</ele>
    <time>2026-08-03T15:10:50Z</time>
   </trkpt>
   <trkpt lat="56.1969940" lon="9.5908300">
    <ele>75.1</ele>
    <time>2026-08-03T15:10:51Z</time>
   </trkpt>
   <trkpt lat="56.1969900" lon="9.5908660">
    <ele>75.1</ele>
    <time>2026-08-03T15:10:52Z</time>
   </trkpt>
   <trkpt lat="56.1969860" lon="9.5909020">
    <ele>75.1</ele>
    <time>2026-08-03T15:10:53Z</time>
   </trkpt>
   <trkpt lat="56.1969850" lon="9.5909400">
    <ele>75.1</ele>
    <time>2026-08-03T15:10:54Z</time>
   </trkpt>
   <trkpt lat="56.1969920" lon="9.5909670">
    <ele>75.1</ele>
    <time>2026-08-03T15:10:55Z</time>
   </trkpt>
   <trkpt lat="56.1969850" lon="9.5910210">
    <ele>75.1</ele>
    <time>2026-08-03T15:10:57Z</time>
   </trkpt>
   <trkpt lat="56.1969770" lon="9.5910950">
    <ele>75.0</ele>
    <time>2026-08-03T15:10:59Z</time>
   </trkpt>
   <trkpt lat="56.1969740" lon="9.5911310">
    <ele>75.0</ele>
    <time>2026-08-03T15:11:00Z</time>
   </trkpt>
   <trkpt lat="56.1969710" lon="9.5911670">
    <ele>75.0</ele>
    <time>2026-08-03T15:11:01Z</time>
   </trkpt>
   <trkpt lat="56.1969700" lon="9.5912070">
    <ele>75.0</ele>
    <time>2026-08-03T15:11:02Z</time>
   </trkpt>
   <trkpt lat="56.1969680" lon="9.5912390">
    <ele>75.0</ele>
    <time>2026-08-03T15:11:03Z</time>
   </trkpt>
   <trkpt lat="56.1969670" lon="9.5912740">
    <ele>75.0</ele>
    <time>2026-08-03T15:11:04Z</time>
   </trkpt>
   <trkpt lat="56.1969680" lon="9.5913060">
    <ele>75.0</ele>
    <time>2026-08-03T15:11:05Z</time>
   </trkpt>
   <trkpt lat="56.1969710" lon="9.5913410">
    <ele>75.0</ele>
    <time>2026-08-03T15:11:06Z</time>
   </trkpt>
   <trkpt lat="56.1969740" lon="9.5913710">
    <ele>75.0</ele>
    <time>2026-08-03T15:11:07Z</time>
   </trkpt>
   <trkpt lat="56.1969810" lon="9.5914010">
    <ele>75.0</ele>
    <time>2026-08-03T15:11:09Z</time>
   </trkpt>
   <trkpt lat="56.1969770" lon="9.5914300">
    <ele>75.0</ele>
    <time>2026-08-03T15:11:10Z</time>
   </trkpt>
   <trkpt lat="56.1969720" lon="9.5914550">
    <ele>74.9</ele>
    <time>2026-08-03T15:11:11Z</time>
   </trkpt>
   <trkpt lat="56.1969670" lon="9.5914890">
    <ele>74.9</ele>
    <time>2026-08-03T15:11:12Z</time>
   </trkpt>
   <trkpt lat="56.1969640" lon="9.5915210">
    <ele>74.9</ele>
    <time>2026-08-03T15:11:14Z</time>
   </trkpt>
   <trkpt lat="56.1969580" lon="9.5915530">
    <ele>74.9</ele>
    <time>2026-08-03T15:11:15Z</time>
   </trkpt>
   <trkpt lat="56.1969440" lon="9.5916200">
    <ele>74.9</ele>
    <time>2026-08-03T15:11:16Z</time>
   </trkpt>
   <trkpt lat="56.1969480" lon="9.5916550">
    <ele>74.9</ele>
    <time>2026-08-03T15:11:17Z</time>
   </trkpt>
   <trkpt lat="56.1969470" lon="9.5916910">
    <ele>74.9</ele>
    <time>2026-08-03T15:11:18Z</time>
   </trkpt>
   <trkpt lat="56.1969400" lon="9.5917260">
    <ele>74.9</ele>
    <time>2026-08-03T15:11:19Z</time>
   </trkpt>
   <trkpt lat="56.1969340" lon="9.5917600">
    <ele>74.9</ele>
    <time>2026-08-03T15:11:21Z</time>
   </trkpt>
   <trkpt lat="56.1969270" lon="9.5917930">
    <ele>74.9</ele>
    <time>2026-08-03T15:11:22Z</time>
   </trkpt>
   <trkpt lat="56.1969130" lon="9.5918570">
    <ele>74.9</ele>
    <time>2026-08-03T15:11:23Z</time>
   </trkpt>
   <trkpt lat="56.1969060" lon="9.5918870">
    <ele>74.9</ele>
    <time>2026-08-03T15:11:24Z</time>
   </trkpt>
   <trkpt lat="56.1968910" lon="9.5919510">
    <ele>74.9</ele>
    <time>2026-08-03T15:11:26Z</time>
   </trkpt>
   <trkpt lat="56.1968810" lon="9.5919660">
    <ele>74.9</ele>
    <time>2026-08-03T15:11:27Z</time>
   </trkpt>
   <trkpt lat="56.1968740" lon="9.5919920">
    <ele>74.9</ele>
    <time>2026-08-03T15:11:29Z</time>
   </trkpt>
   <trkpt lat="56.1968660" lon="9.5920550">
    <ele>74.9</ele>
    <time>2026-08-03T15:11:30Z</time>
   </trkpt>
   <trkpt lat="56.1968580" lon="9.5921210">
    <ele>74.8</ele>
    <time>2026-08-03T15:11:32Z</time>
   </trkpt>
   <trkpt lat="56.1968560" lon="9.5921540">
    <ele>74.8</ele>
    <time>2026-08-03T15:11:33Z</time>
   </trkpt>
   <trkpt lat="56.1968510" lon="9.5921860">
    <ele>74.8</ele>
    <time>2026-08-03T15:11:34Z</time>
   </trkpt>
   <trkpt lat="56.1968450" lon="9.5922140">
    <ele>74.8</ele>
    <time>2026-08-03T15:11:35Z</time>
   </trkpt>
   <trkpt lat="56.1968380" lon="9.5922440">
    <ele>74.8</ele>
    <time>2026-08-03T15:11:36Z</time>
   </trkpt>
   <trkpt lat="56.1968320" lon="9.5922740">
    <ele>74.8</ele>
    <time>2026-08-03T15:11:37Z</time>
   </trkpt>
   <trkpt lat="56.1968270" lon="9.5923120">
    <ele>74.9</ele>
    <time>2026-08-03T15:11:38Z</time>
   </trkpt>
   <trkpt lat="56.1968210" lon="9.5923410">
    <ele>74.9</ele>
    <time>2026-08-03T15:11:39Z</time>
   </trkpt>
   <trkpt lat="56.1968150" lon="9.5923760">
    <ele>74.9</ele>
    <time>2026-08-03T15:11:40Z</time>
   </trkpt>
   <trkpt lat="56.1968100" lon="9.5924110">
    <ele>74.9</ele>
    <time>2026-08-03T15:11:41Z</time>
   </trkpt>
   <trkpt lat="56.1968050" lon="9.5924450">
    <ele>74.9</ele>
    <time>2026-08-03T15:11:42Z</time>
   </trkpt>
   <trkpt lat="56.1967980" lon="9.5924750">
    <ele>74.9</ele>
    <time>2026-08-03T15:11:43Z</time>
   </trkpt>
   <trkpt lat="56.1967920" lon="9.5925070">
    <ele>74.9</ele>
    <time>2026-08-03T15:11:45Z</time>
   </trkpt>
   <trkpt lat="56.1967880" lon="9.5925370">
    <ele>74.9</ele>
    <time>2026-08-03T15:11:46Z</time>
   </trkpt>
   <trkpt lat="56.1967850" lon="9.5925690">
    <ele>74.9</ele>
    <time>2026-08-03T15:11:47Z</time>
   </trkpt>
   <trkpt lat="56.1967810" lon="9.5926350">
    <ele>74.9</ele>
    <time>2026-08-03T15:11:48Z</time>
   </trkpt>
   <trkpt lat="56.1967800" lon="9.5926670">
    <ele>75.0</ele>
    <time>2026-08-03T15:11:49Z</time>
   </trkpt>
   <trkpt lat="56.1967770" lon="9.5926980">
    <ele>75.0</ele>
    <time>2026-08-03T15:11:50Z</time>
   </trkpt>
   <trkpt lat="56.1967780" lon="9.5927250">
    <ele>75.0</ele>
    <time>2026-08-03T15:11:52Z</time>
   </trkpt>
   <trkpt lat="56.1967830" lon="9.5927510">
    <ele>75.0</ele>
    <time>2026-08-03T15:11:53Z</time>
   </trkpt>
   <trkpt lat="56.1967990" lon="9.5927700">
    <ele>74.9</ele>
    <time>2026-08-03T15:11:54Z</time>
   </trkpt>
   <trkpt lat="56.1968170" lon="9.5927810">
    <ele>74.9</ele>
    <time>2026-08-03T15:11:55Z</time>
   </trkpt>
   <trkpt lat="56.1968570" lon="9.5927910">
    <ele>74.8</ele>
    <time>2026-08-03T15:11:57Z</time>
   </trkpt>
   <trkpt lat="56.1969000" lon="9.5928000">
    <ele>74.8</ele>
    <time>2026-08-03T15:11:59Z</time>
   </trkpt>
   <trkpt lat="56.1969190" lon="9.5928020">
    <ele>74.7</ele>
    <time>2026-08-03T15:12:00Z</time>
   </trkpt>
   <trkpt lat="56.1969400" lon="9.5927990">
    <ele>74.7</ele>
    <time>2026-08-03T15:12:01Z</time>
   </trkpt>
   <trkpt lat="56.1969600" lon="9.5927910">
    <ele>74.7</ele>
    <time>2026-08-03T15:12:02Z</time>
   </trkpt>
   <trkpt lat="56.1969820" lon="9.5927850">
    <ele>74.7</ele>
    <time>2026-08-03T15:12:03Z</time>
   </trkpt>
   <trkpt lat="56.1970020" lon="9.5927720">
    <ele>74.7</ele>
    <time>2026-08-03T15:12:04Z</time>
   </trkpt>
   <trkpt lat="56.1970240" lon="9.5927630">
    <ele>74.7</ele>
    <time>2026-08-03T15:12:05Z</time>
   </trkpt>
   <trkpt lat="56.1970450" lon="9.5927580">
    <ele>74.6</ele>
    <time>2026-08-03T15:12:06Z</time>
   </trkpt>
   <trkpt lat="56.1970620" lon="9.5927520">
    <ele>74.6</ele>
    <time>2026-08-03T15:12:07Z</time>
   </trkpt>
   <trkpt lat="56.1970830" lon="9.5927460">
    <ele>74.6</ele>
    <time>2026-08-03T15:12:09Z</time>
   </trkpt>
   <trkpt lat="56.1971070" lon="9.5927530">
    <ele>74.6</ele>
    <time>2026-08-03T15:12:10Z</time>
   </trkpt>
   <trkpt lat="56.1971410" lon="9.5927680">
    <ele>74.6</ele>
    <time>2026-08-03T15:12:12Z</time>
   </trkpt>
   <trkpt lat="56.1971650" lon="9.5927760">
    <ele>74.6</ele>
    <time>2026-08-03T15:12:13Z</time>
   </trkpt>
   <trkpt lat="56.1971880" lon="9.5927770">
    <ele>74.6</ele>
    <time>2026-08-03T15:12:14Z</time>
   </trkpt>
   <trkpt lat="56.1972110" lon="9.5927800">
    <ele>74.6</ele>
    <time>2026-08-03T15:12:15Z</time>
   </trkpt>
   <trkpt lat="56.1972450" lon="9.5927760">
    <ele>74.5</ele>
    <time>2026-08-03T15:12:17Z</time>
   </trkpt>
   <trkpt lat="56.1972840" lon="9.5927740">
    <ele>74.5</ele>
    <time>2026-08-03T15:12:18Z</time>
   </trkpt>
   <trkpt lat="56.1973090" lon="9.5927710">
    <ele>74.5</ele>
    <time>2026-08-03T15:12:19Z</time>
   </trkpt>
   <trkpt lat="56.1973320" lon="9.5927710">
    <ele>74.5</ele>
    <time>2026-08-03T15:12:20Z</time>
   </trkpt>
   <trkpt lat="56.1973610" lon="9.5927700">
    <ele>74.5</ele>
    <time>2026-08-03T15:12:21Z</time>
   </trkpt>
   <trkpt lat="56.1973860" lon="9.5927700">
    <ele>74.5</ele>
    <time>2026-08-03T15:12:22Z</time>
   </trkpt>
   <trkpt lat="56.1974100" lon="9.5927700">
    <ele>74.5</ele>
    <time>2026-08-03T15:12:23Z</time>
   </trkpt>
   <trkpt lat="56.1974340" lon="9.5927800">
    <ele>74.5</ele>
    <time>2026-08-03T15:12:24Z</time>
   </trkpt>
   <trkpt lat="56.1974560" lon="9.5927870">
    <ele>74.5</ele>
    <time>2026-08-03T15:12:25Z</time>
   </trkpt>
   <trkpt lat="56.1974780" lon="9.5927940">
    <ele>74.5</ele>
    <time>2026-08-03T15:12:26Z</time>
   </trkpt>
   <trkpt lat="56.1974950" lon="9.5928180">
    <ele>74.5</ele>
    <time>2026-08-03T15:12:27Z</time>
   </trkpt>
   <trkpt lat="56.1975080" lon="9.5928450">
    <ele>74.5</ele>
    <time>2026-08-03T15:12:28Z</time>
   </trkpt>
   <trkpt lat="56.1975240" lon="9.5928580">
    <ele>74.5</ele>
    <time>2026-08-03T15:12:29Z</time>
   </trkpt>
   <trkpt lat="56.1975410" lon="9.5928670">
    <ele>74.5</ele>
    <time>2026-08-03T15:12:30Z</time>
   </trkpt>
   <trkpt lat="56.1975560" lon="9.5928790">
    <ele>74.5</ele>
    <time>2026-08-03T15:12:31Z</time>
   </trkpt>
   <trkpt lat="56.1975740" lon="9.5928830">
    <ele>74.5</ele>
    <time>2026-08-03T15:12:32Z</time>
   </trkpt>
   <trkpt lat="56.1975900" lon="9.5928860">
    <ele>74.5</ele>
    <time>2026-08-03T15:12:33Z</time>
   </trkpt>
   <trkpt lat="56.1976060" lon="9.5928920">
    <ele>74.5</ele>
    <time>2026-08-03T15:12:34Z</time>
   </trkpt>
   <trkpt lat="56.1976260" lon="9.5928930">
    <ele>74.5</ele>
    <time>2026-08-03T15:12:35Z</time>
   </trkpt>
   <trkpt lat="56.1976400" lon="9.5928760">
    <ele>74.5</ele>
    <time>2026-08-03T15:12:36Z</time>
   </trkpt>
   <trkpt lat="56.1976530" lon="9.5928440">
    <ele>74.5</ele>
    <time>2026-08-03T15:12:37Z</time>
   </trkpt>
   <trkpt lat="56.1976560" lon="9.5928020">
    <ele>74.5</ele>
    <time>2026-08-03T15:12:38Z</time>
   </trkpt>
   <trkpt lat="56.1976600" lon="9.5927610">
    <ele>74.5</ele>
    <time>2026-08-03T15:12:39Z</time>
   </trkpt>
   <trkpt lat="56.1976570" lon="9.5927150">
    <ele>74.5</ele>
    <time>2026-08-03T15:12:40Z</time>
   </trkpt>
   <trkpt lat="56.1976490" lon="9.5926720">
    <ele>74.5</ele>
    <time>2026-08-03T15:12:41Z</time>
   </trkpt>
   <trkpt lat="56.1976390" lon="9.5926340">
    <ele>74.5</ele>
    <time>2026-08-03T15:12:42Z</time>
   </trkpt>
   <trkpt lat="56.1976360" lon="9.5925940">
    <ele>74.5</ele>
    <time>2026-08-03T15:12:43Z</time>
   </trkpt>
   <trkpt lat="56.1976400" lon="9.5925540">
    <ele>74.5</ele>
    <time>2026-08-03T15:12:44Z</time>
   </trkpt>
   <trkpt lat="56.1976480" lon="9.5925190">
    <ele>74.5</ele>
    <time>2026-08-03T15:12:45Z</time>
   </trkpt>
   <trkpt lat="56.1976540" lon="9.5924800">
    <ele>74.5</ele>
    <time>2026-08-03T15:12:46Z</time>
   </trkpt>
   <trkpt lat="56.1976520" lon="9.5924440">
    <ele>74.5</ele>
    <time>2026-08-03T15:12:47Z</time>
   </trkpt>
   <trkpt lat="56.1976400" lon="9.5924290">
    <ele>74.5</ele>
    <time>2026-08-03T15:12:48Z</time>
   </trkpt>
   <trkpt lat="56.1976260" lon="9.5924450">
    <ele>74.5</ele>
    <time>2026-08-03T15:12:49Z</time>
   </trkpt>
   <trkpt lat="56.1976150" lon="9.5924680">
    <ele>74.5</ele>
    <time>2026-08-03T15:12:50Z</time>
   </trkpt>
   <trkpt lat="56.1976040" lon="9.5924890">
    <ele>74.5</ele>
    <time>2026-08-03T15:12:51Z</time>
   </trkpt>
   <trkpt lat="56.1975950" lon="9.5925190">
    <ele>74.5</ele>
    <time>2026-08-03T15:12:52Z</time>
   </trkpt>
   <trkpt lat="56.1975890" lon="9.5925520">
    <ele>74.5</ele>
    <time>2026-08-03T15:12:53Z</time>
   </trkpt>
   <trkpt lat="56.1975850" lon="9.5925850">
    <ele>74.6</ele>
    <time>2026-08-03T15:12:54Z</time>
   </trkpt>
  </trkseg>
 </trk>
</gpx>
